     2.11           N: GPS NAV DATA                         RINEX VERSION / TYPE
teqc  2019Feb25     CORS-ADM Account    20260502 19:45:02UTCPGM / RUN BY / DATE
Linux 2.4.21-27.ELsmp|Opteron|gcc|Linux 64|=+               COMMENT
     2.10           N: GPS NAV DATA                         COMMENT
rvacn.e(1404.07)                        2026-05-02T19:27 UTCCOMMENT
This file contains the validated broadcast navigation       COMMENT
messages from the following files:                          COMMENT
aaaa1220.26n, abmf122s.26n, abpo122s.26n, albh122s.26n,     COMMENT
alic122s.26n, areq122s.26n, aruc122s.26n, baie122s.26n,     COMMENT
bake122s.26n, brew122s.26n, brst122s.26n, brux122s.26n,     COMMENT
bucu122s.26n, cebr122s.26n, chpi122s.26n, chum122s.26n,     COMMENT
chur122s.26n, ckis122s.26n, coco122s.26n, cro1122s.26n,     COMMENT
darw122s.26n, dav1122s.26n, dgar122s.26n, djig122s.26n,     COMMENT
dlf1122s.26n, drao122s.26n, dubo122s.26n, ebre122s.26n,     COMMENT
fair122s.26n, falk122s.26n, flin122s.26n, glps122s.26n,     COMMENT
gode122s.26n, guam122s.26n, harb122s.26n, hers122s.26n,     COMMENT
hlfx122s.26n, hob2122s.26n, hofn122s.26n, holb122s.26n,     COMMENT
hrao122s.26n, iisc122s.26n, iqal122s.26n, ista122s.26n,     COMMENT
joze122s.26n, jplm122s.26n, karr122s.26n, kat1122s.26n,     COMMENT
kiri122s.26n, kiru122s.26n, kokb122s.26n, koug122s.26n,     COMMENT
kour122s.26n, lmmf122s.26n, lpal122s.26n, m0se122s.26n,     COMMENT
mac1122s.26n, maju122s.26n, mal2122s.26n, mar6122s.26n,     COMMENT
mas1122s.26n, mat1122s.26n, mate122s.26n, maw1122s.26n,     COMMENT
mcm4122s.26n, mdo1122s.26n, medi122s.26n, met3122s.26n,     COMMENT
mkea122s.26n, mobs122s.26n, mro1122s.26n, nain122s.26n,     COMMENT
nano122s.26n, naur122s.26n, nico122s.26n, nklg122s.26n,     COMMENT
nlib122s.26n, nnor122s.26n, not1122s.26n, nrc1122s.26n,     COMMENT
onsa122s.26n, orid122s.26n, palm122s.26n, pert122s.26n,     COMMENT
picl122s.26n, pie1122s.26n, pimo122s.26n, pohn122s.26n,     COMMENT
prds122s.26n, ptvl122s.26n, qaq1122s.26n, qiki122s.26n,     COMMENT
reso122s.26n, reun122s.26n, reyk122s.26n, riga122s.26n,     COMMENT
sant122s.26n, sask122s.26n, sch2122s.26n, scor122s.26n,     COMMENT
solo122s.26n, stj3122s.26n, stjo122s.26n, stpm122s.26n,     COMMENT
suth122s.26n, suwn122s.26n, sydn122s.26n, thtg122s.26n,     COMMENT
thu2122s.26n, tid1122s.26n, tow2122s.26n, tuva122s.26n,     COMMENT
unbj122s.26n, usud122s.26n, vacs122s.26n, vald122s.26n,     COMMENT
vill122s.26n, vis0122s.26n, warn122s.26n, whit122s.26n,     COMMENT
will122s.26n, wsrt122s.26n, wtzr122s.26n, xmis122s.26n,     COMMENT
yar2122s.26n, yarr122s.26n, yebe122s.26n, yell122s.26n,     COMMENT
zim2122s.26n, zimm122s.26n                                  COMMENT
    2.2350D-08  1.4900D-08 -1.1920D-07 -5.9600D-08          ION ALPHA
    1.2490D+05  6.5540D+04 -1.9660D+05  6.5540D+04          ION BETA
   -1.862645149230D-09-3.552713678800D-15    61440     2417 DELTA-UTC: A0,A1,T,W
                                                            END OF HEADER
26 26  5  1 22  0  0.0-3.603240475059D-04-4.320099833421D-12 0.000000000000D+00
    8.600000000000D+01 2.900000000000D+01 4.862345393345D-09 2.124412893524D+00
    1.411885023117D-06 1.104470738210D-02 1.095235347748D-05 5.153757059097D+03
    5.112000000000D+05-1.750886440277D-07-1.369059391162D-01-1.043081283569D-07
    9.284850235624D-01 1.526875000000D+02 7.126952910081D-01-8.081765209389D-09
   -3.789443559820D-10 1.000000000000D+00 2.416000000000D+03 0.000000000000D+00
    2.000000000000D+00 0.000000000000D+00 6.519258000000D-09 8.600000000000D+01
    5.040600000000D+05 4.000000000000D+00
27 26  5  1 22  0  0.0-1.322864554822D-04-1.728039933369D-11 0.000000000000D+00
    1.100000000000D+02 1.072500000000D+02 4.754483757618D-09 4.014192511002D-01
    5.559995770454D-06 1.435943378601D-02 4.280358552933D-06 5.153673431396D+03
    5.112000000000D+05-1.601874828339D-07 9.930928358342D-01 2.328306436539D-07
    9.519414286386D-01 2.947500000000D+02 8.957409173303D-01-8.508568701753D-09
    2.692969315838D-10 1.000000000000D+00 2.416000000000D+03 0.000000000000D+00
    2.000000000000D+00 0.000000000000D+00 2.328306436539D-09 1.100000000000D+02
    5.108400000000D+05
28 26  5  1 22  0  0.0-5.410029552877D-04 1.000444171950D-11 0.000000000000D+00
    8.000000000000D+00-2.378125000000D+01 4.801985736266D-09-1.773859299651D+00
   -1.195818185806D-06 4.366928478703D-04 5.636364221573D-06 5.153569280624D+03
    5.112000000000D+05 5.587935447693D-09-1.109960918305D+00 2.048909664154D-08
    9.615440580210D-01 2.719375000000D+02-4.047086180127D-01-8.135696027253D-09
   -4.310893851747D-10 1.000000000000D+00 2.416000000000D+03 0.000000000000D+00
    2.000000000000D+00 0.000000000000D+00-9.778887033463D-09 2.640000000000D+02
    5.040260000000D+05 4.000000000000D+00
29 26  5  1 22  0  0.0-3.295438364148D-04 7.389644451905D-12 0.000000000000D+00
    6.000000000000D+01 1.010000000000D+02 4.556261215139D-09 2.142395645778D-01
    5.299225449562D-06 3.535234020092D-03 3.697350621223D-06 5.153728633881D+03
    5.112000000000D+05 2.793967723846D-08 1.083077588129D+00-1.676380634308D-08
    9.610816866699D-01 3.058437500000D+02 2.773706849578D+00-8.319632260364D-09
    3.871589838686D-10 1.000000000000D+00 2.416000000000D+03 0.000000000000D+00
    2.000000000000D+00 0.000000000000D+00-9.778887000000D-09 6.000000000000D+01
    5.040600000000D+05 4.000000000000D+00
30 26  5  1 22  0  0.0 2.074129879475D-04 1.352873368887D-11 0.000000000000D+00
    7.300000000000D+01-2.643750000000D+01 5.333436444750D-09-2.751783320786D+00
   -1.462176442146D-06 8.221651893109D-03 5.453824996948D-06 5.153720151901D+03
    5.112000000000D+05 7.078051567078D-08-1.094762184005D+00-8.754432201385D-08
    9.359090519344D-01 2.593750000000D+02-2.280391138484D+00-8.271773123981D-09
   -4.232319150224D-10 1.000000000000D+00 2.416000000000D+03 0.000000000000D+00
    2.000000000000D+00 0.000000000000D+00 4.190951585770D-09 7.300000000000D+01
    5.090470000000D+05 4.000000000000D+00
31 26  5  1 22  0  0.0-1.518623903394D-04 2.387423592154D-12 0.000000000000D+00
    1.020000000000D+02-2.893750000000D+01 4.887703592473D-09 2.696337504046D+00
   -1.681968569756D-06 1.081583544146D-02 5.638226866722D-06 5.153590030670D+03
    5.112000000000D+05 2.235174179077D-08-1.060393458970D+00-1.322478055954D-07
    9.543928287607D-01 2.658125000000D+02 9.480458650471D-01-8.022119867778D-09
   -5.114498753688D-10 1.000000000000D+00 2.416000000000D+03 0.000000000000D+00
    2.000000000000D+00 0.000000000000D+00-1.350417733192D-08 1.020000000000D+02
    5.041170000000D+05 4.000000000000D+00
 8 26  5  1 23 59 44.0 4.511908628047D-04-7.275957614183D-12 0.000000000000D+00
    5.000000000000D+00 1.129375000000D+02 4.820557938445D-09 1.335112903783D+00
    5.930662155151D-06 1.160416775383D-02 4.870817065239D-06 5.153719617844D+03
    5.183840000000D+05-1.247972249985D-07 9.604818580732D-01 1.229345798492D-07
    9.428712751046D-01 2.763125000000D+02 5.390000006792D-01-8.459280934434D-09
    1.675069773380D-10 1.000000000000D+00 2.416000000000D+03 0.000000000000D+00
    2.000000000000D+00 0.000000000000D+00 4.656612873077D-09 5.000000000000D+00
    5.142490000000D+05 4.000000000000D+00
 9 26  5  1 23 59 44.0 7.545785047114D-04-3.751665644813D-12 0.000000000000D+00
    5.100000000000D+01 2.815625000000D+01 4.636978863068D-09 1.935939909885D+00
    1.411885023117D-06 3.383636591025D-03 7.562339305878D-06 5.153739376068D+03
    5.183840000000D+05 2.235174179077D-08-2.158184728965D+00-4.097819328308D-08
    9.653592547450D-01 2.317812500000D+02 2.047525111365D+00-7.942473693053D-09
    4.614477925813D-10 1.000000000000D+00 2.416000000000D+03 0.000000000000D+00
    2.000000000000D+00 0.000000000000D+00 4.656612873077D-10 5.100000000000D+01
    5.119380000000D+05 4.000000000000D+00
15 26  5  1 23 59 44.0 4.079770296812D-04 3.296918293927D-12 0.000000000000D+00
    1.100000000000D+01 1.681250000000D+01 5.233075121441D-09 3.379408101226D-01
    1.111999154091D-06 1.669474970549D-02 8.972361683846D-06 5.153719488144D+03
    5.183840000000D+05-1.564621925354D-07-2.303670179373D+00 9.313225746155D-09
    9.434637730188D-01 2.020937500000D+02 1.513212374821D+00-8.534641216350D-09
    4.985921969377D-10 1.000000000000D+00 2.416000000000D+03 0.000000000000D+00
    2.000000000000D+00 0.000000000000D+00-1.117587089539D-08 1.100000000000D+01
    5.141320000000D+05 4.000000000000D+00
 1 26  5  2  0  0  0.0 2.849348820746D-04-8.981260180008D-12 0.000000000000D+00
    1.340000000000D+02-8.937500000000D+01 4.792699635177D-09 1.300668746303D-01
   -4.587695002556D-06 1.729331910610D-03 2.520158886909D-06 5.153613126755D+03
    5.184000000000D+05 2.980232238770D-08 2.131615281030D+00-2.421438694000D-08
    9.573667320186D-01 3.305312500000D+02 1.870919216781D-01-8.407850220710D-09
   -1.500062483624D-10 1.000000000000D+00 2.416000000000D+03 0.000000000000D+00
    2.000000000000D+00 0.000000000000D+00-9.313225746155D-09 6.460000000000D+02
    5.112180000000D+05 4.000000000000D+00
 2 26  5  2  0  0  0.0 9.022885933518D-05 7.617018127348D-12 0.000000000000D+00
    2.500000000000D+01-5.268750000000D+01 4.635550232131D-09 1.642860066367D+00
   -2.885237336159D-06 1.680759270675D-02 9.573996067047D-07 5.153760803223D+03
    5.184000000000D+05 2.868473529816D-07 1.969261108041D+00 1.136213541031D-07
    9.624211871284D-01 3.608437500000D+02-7.741753668715D-01-8.223913987599D-09
   -2.271523189487D-10 1.000000000000D+00 2.416000000000D+03 0.000000000000D+00
    2.000000000000D+00 0.000000000000D+00-1.769512891769D-08 2.500000000000D+01
    5.174920000000D+05 4.000000000000D+00
